{"fetched_at":"2026-07-10T07:58:39.953Z","source":"https://celestrak.org/NORAD/elements/gp.php?GROUP=kuiper&FORMAT=JSON","constellation":"kuiper","records":[{"OBJECT_NAME":"KUIPER-00265","OBJECT_ID":"2025-301AC","EPOCH":"2026-07-09T05:23:54.440160","CLASSIFICATION_TYPE":"U","MEAN_MOTION":14.7993127,"ECCENTRICITY":0.00005837,"INCLINATION":51.902,"RA_OF_ASC_NODE":268.2143,"ARG_OF_PERICENTER":101.7124,"MEAN_ANOMALY":258.3904,"EPHEMERIS_TYPE":0,"NORAD_CAT_ID":67159,"ELEMENT_SET_NO":999,"REV_AT_EPOCH":3148,"BSTAR":0.00024378235,"MEAN_MOTION_DOT":0.00001638,"MEAN_MOTION_DDOT":0},{"OBJECT_NAME":"KUIPER-00159","OBJECT_ID":"2026-030A","EPOCH":"2026-07-09T20:00:01.999008","CLASSIFICATION_TYPE":"U","MEAN_MOTION":15.33195633,"ECCENTRICITY":0.0006007,"INCLINATION":51.8867,"RA_OF_ASC_NODE":348.7813,"ARG_OF_PERICENTER":113.6345,"MEAN_ANOMALY":155.5582,"EPHEMERIS_TYPE":0,"NORAD_CAT_ID":67764,"ELEMENT_SET_NO":999,"REV_AT_EPOCH":461,"BSTAR":-0.037341,"MEAN_MOTION_DOT":-0.01112704,"MEAN_MOTION_DDOT":0},{"OBJECT_NAME":"KUIPER-00160","OBJECT_ID":"2026-030B","EPOCH":"2026-07-09T17:13:03.518112","CLASSIFICATION_TYPE":"U","MEAN_MOTION":15.37470908,"ECCENTRICITY":0.0007257,"INCLINATION":51.8799,"RA_OF_ASC_NODE":349.2747,"ARG_OF_PERICENTER":118.7619,"MEAN_ANOMALY":241.4098,"EPHEMERIS_TYPE":0,"NORAD_CAT_ID":67765,"ELEMENT_SET_NO":999,"REV_AT_EPOCH":2386,"BSTAR":0.00054728,"MEAN_MOTION_DOT":0.00020102,"MEAN_MOTION_DDOT":0},{"OBJECT_NAME":"KUIPER-00177","OBJECT_ID":"2026-030C","EPOCH":"2026-07-08T18:23:58.096896","CLASSIFICATION_TYPE":"U","MEAN_MOTION":14.79918458,"ECCENTRICITY":0.00006725,"INCLINATION":51.9003,"RA_OF_ASC_NODE":37.7215,"ARG_OF_PERICENTER":109.8362,"MEAN_ANOMALY":250.2673,"EPHEMERIS_TYPE":0,"NORAD_CAT_ID":67766,"ELEMENT_SET_NO":999,"REV_AT_EPOCH":2310,"BSTAR":0.00033151204,"MEAN_MOTION_DOT":0.00002306,"MEAN_MOTION_DDOT":0},{"OBJECT_NAME":"KUIPER-00178","OBJECT_ID":"2026-030D","EPOCH":"2026-07-08T20:49:49.684224","CLASSIFICATION_TYPE":"U","MEAN_MOTION":14.79923391,"ECCENTRICITY":0.00008911,"INCLINATION":51.8995,"RA_OF_ASC_NODE":37.2568,"ARG_OF_PERICENTER":109.4967,"MEAN_ANOMALY":250.6092,"EPHEMERIS_TYPE":0,"NORAD_CAT_ID":67767,"ELEMENT_SET_NO":999,"REV_AT_EPOCH":2312,"BSTAR":0.00013981172,"MEAN_MOTION_DOT":0.00000845,"MEAN_MOTION_DDOT":0},{"OBJECT_NAME":"KUIPER-00180","OBJECT_ID":"2026-030E","EPOCH":"2026-07-08T22:34:50.177856","CLASSIFICATION_TYPE":"U","MEAN_MOTION":14.79920755,"ECCENTRICITY":0.00007562,"INCLINATION":51.8985,"RA_OF_ASC_NODE":31.9392,"ARG_OF_PERICENTER":113.0002,"MEAN_ANOMALY":247.104,"EPHEMERIS_TYPE":0,"NORAD_CAT_ID":67768,"ELEMENT_SET_NO":999,"REV_AT_EPOCH":2320,"BSTAR":0.0003111952,"MEAN_MOTION_DOT":0.00002151,"MEAN_MOTION_DDOT":0},{"OBJECT_NAME":"KUIPER-00197","OBJECT_ID":"2026-030F","EPOCH":"2026-07-08T16:36:55.787040","CLASSIFICATION_TYPE":"U","MEAN_MOTION":14.79921075,"ECCENTRICITY":0.00006525,"INCLINATION":51.8994,"RA_OF_ASC_NODE":13.0503,"ARG_OF_PERICENTER":150.0437,"MEAN_ANOMALY":210.0563,"EPHEMERIS_TYPE":0,"NORAD_CAT_ID":67769,"ELEMENT_SET_NO":999,"REV_AT_EPOCH":2344,"BSTAR":0.00032620233,"MEAN_MOTION_DOT":0.00002266,"MEAN_MOTION_DDOT":0},{"OBJECT_NAME":"KUIPER-00198","OBJECT_ID":"2026-030G","EPOCH":"2026-07-08T20:20:35.313216","CLASSIFICATION_TYPE":"U","MEAN_MOTION":14.79945605,"ECCENTRICITY":0.00004522,"INCLINATION":51.8991,"RA_OF_ASC_NODE":24.8477,"ARG_OF_PERICENTER":110.2346,"MEAN_ANOMALY":249.8665,"EPHEMERIS_TYPE":0,"NORAD_CAT_ID":67770,"ELEMENT_SET_NO":999,"REV_AT_EPOCH":2329,"BSTAR":0.0006991737,"MEAN_MOTION_DOT":0.00005115,"MEAN_MOTION_DDOT":0},{"OBJECT_NAME":"KUIPER-00199","OBJECT_ID":"2026-030H","EPOCH":"2026-07-09T17:45:35.239680","CLASSIFICATION_TYPE":"U","MEAN_MOTION":15.36933495,"ECCENTRICITY":0.0010517,"INCLINATION":51.8818,"RA_OF_ASC_NODE":350.8907,"ARG_OF_PERICENTER":133.4763,"MEAN_ANOMALY":226.7099,"EPHEMERIS_TYPE":0,"NORAD_CAT_ID":67771,"ELEMENT_SET_NO":999,"REV_AT_EPOCH":2384,"BSTAR":0.00045626,"MEAN_MOTION_DOT":0.00016406,"MEAN_MOTION_DDOT":0},{"OBJECT_NAME":"KUIPER-00200","OBJECT_ID":"2026-030J","EPOCH":"2026-07-09T20:00:01.999008","CLASSIFICATION_TYPE":"U","MEAN_MOTION":14.79881166,"ECCENTRICITY":0.000173,"INCLINATION":51.8985,"RA_OF_ASC_NODE":5.5309,"ARG_OF_PERICENTER":59.9211,"MEAN_ANOMALY":69.4875,"EPHEMERIS_TYPE":0,"NORAD_CAT_ID":67772,"ELEMENT_SET_NO":999,"REV_AT_EPOCH":557,"BSTAR":-0.00017556,"MEAN_MOTION_DOT":-0.00001558,"MEAN_MOTION_DDOT":0},{"OBJECT_NAME":"KUIPER-00203","OBJECT_ID":"2026-030K","EPOCH":"2026-07-08T23:07:55.907328","CLASSIFICATION_TYPE":"U","MEAN_MOTION":14.7992786,"ECCENTRICITY":0.00007221,"INCLINATION":51.9057,"RA_OF_ASC_NODE":41.8916,"ARG_OF_PERICENTER":114.5362,"MEAN_ANOMALY":245.5676,"EPHEMERIS_TYPE":0,"NORAD_CAT_ID":67773,"ELEMENT_SET_NO":999,"REV_AT_EPOCH":2306,"BSTAR":0.00031883177,"MEAN_MOTION_DOT":0.0000221,"MEAN_MOTION_DDOT":0},{"OBJECT_NAME":"KUIPER-00205","OBJECT_ID":"2026-030L","EPOCH":"2026-07-09T17:51:55.624320","CLASSIFICATION_TYPE":"U","MEAN_MOTION":14.79975452,"ECCENTRICITY":0.0000958,"INCLINATION":51.9003,"RA_OF_ASC_NODE":3.3738,"ARG_OF_PERICENTER":109.5835,"MEAN_ANOMALY":250.5231,"EPHEMERIS_TYPE":0,"NORAD_CAT_ID":67774,"ELEMENT_SET_NO":999,"REV_AT_EPOCH":2367,"BSTAR":0.00034192,"MEAN_MOTION_DOT":0.00002389,"MEAN_MOTION_DDOT":0},{"OBJECT_NAME":"KUIPER-00208","OBJECT_ID":"2026-030M","EPOCH":"2026-07-09T15:57:45.344160","CLASSIFICATION_TYPE":"U","MEAN_MOTION":14.76512455,"ECCENTRICITY":0.0008207,"INCLINATION":51.899,"RA_OF_ASC_NODE":31.0736,"ARG_OF_PERICENTER":104.6771,"MEAN_ANOMALY":255.51,"EPHEMERIS_TYPE":0,"NORAD_CAT_ID":67775,"ELEMENT_SET_NO":999,"REV_AT_EPOCH":2327,"BSTAR":0.00017938,"MEAN_MOTION_DOT":0.00001045,"MEAN_MOTION_DDOT":0},{"OBJECT_NAME":"KUIPER-00209","OBJECT_ID":"2026-030N","EPOCH":"2026-07-08T23:23:28.416480","CLASSIFICATION_TYPE":"U","MEAN_MOTION":14.7992608,"ECCENTRICITY":0.00008138,"INCLINATION":51.9003,"RA_OF_ASC_NODE":31.8793,"ARG_OF_PERICENTER":117.1374,"MEAN_ANOMALY":242.9671,"EPHEMERIS_TYPE":0,"NORAD_CAT_ID":67776,"ELEMENT_SET_NO":999,"REV_AT_EPOCH":2320,"BSTAR":0.00030432055,"MEAN_MOTION_DOT":0.00002099,"MEAN_MOTION_DDOT":0},{"OBJECT_NAME":"KUIPER-00213","OBJECT_ID":"2026-030P","EPOCH":"2026-07-09T13:13:54.942240","CLASSIFICATION_TYPE":"U","MEAN_MOTION":14.79932774,"ECCENTRICITY":0.0000703,"INCLINATION":51.8967,"RA_OF_ASC_NODE":26.812,"ARG_OF_PERICENTER":106.3537,"MEAN_ANOMALY":253.7503,"EPHEMERIS_TYPE":0,"NORAD_CAT_ID":67777,"ELEMENT_SET_NO":999,"REV_AT_EPOCH":2332,"BSTAR":0.00031549,"MEAN_MOTION_DOT":0.00002185,"MEAN_MOTION_DDOT":0},{"OBJECT_NAME":"KUIPER-00214","OBJECT_ID":"2026-030Q","EPOCH":"2026-07-08T20:16:45.733728","CLASSIFICATION_TYPE":"U","MEAN_MOTION":14.79918645,"ECCENTRICITY":0.00005883,"INCLINATION":51.9012,"RA_OF_ASC_NODE":27.4432,"ARG_OF_PERICENTER":101.1915,"MEAN_ANOMALY":258.9113,"EPHEMERIS_TYPE":0,"NORAD_CAT_ID":67778,"ELEMENT_SET_NO":999,"REV_AT_EPOCH":2325,"BSTAR":0.00031403858,"MEAN_MOTION_DOT":0.00002173,"MEAN_MOTION_DDOT":0}]}
